      2.10          N: GNSS NAV DATA                        RINEX VERSION / TYPE
fic2rin                                 06/26/2023 00:17:11 PGM / RUN BY / DATE
                                                            END OF HEADER
6  23  6 25  1 59 44.0  .583045184612D-03 -.250111042988D-11  .000000000000D+00
     .400000000000D+01  .348437500000D+02  .368372487050D-08  .102265862965D+01
     .198930501938D-05  .271309900563D-02  .736117362976D-05  .515369126129D+04
     .718400000000D+04  .763684511185D-07  .176193952360D+01 -.726431608200D-07
     .989079380063D+00  .251218750000D+03 -.746580670836D+00 -.775568019807D-08
     .268225458381D-09  .100000000000D+01  .226800000000D+04  .000000000000D+00
     .240000000000D+01  .000000000000D+00  .372529029846D-08  .400000000000D+01
     .000000000000D+00  .400000000000D+01
26 23  6 25 10  0  0.0  .238215550780D-03 -.909494701773D-12  .000000000000D+00
     .270000000000D+02  .357500000000D+02  .547629953843D-08  .278340507919D+01
     .184588134289D-05  .793779967353D-02  .624358654022D-05  .515370535088D+04
     .360000000000D+05 -.122934579849D-06 -.411267567334D+00 -.856816768646D-07
     .933798482466D+00  .245625000000D+03  .462029973266D+00 -.833713298934D-08
     .667884962947D-10  .100000000000D+01  .226800000000D+04  .000000000000D+00
     .240000000000D+01  .000000000000D+00  .698491930962D-08  .270000000000D+02
     .288000000000D+05  .400000000000D+01
32 23  6 25 10  0  0.0 -.507807359099D-03 -.818545231596D-11  .000000000000D+00
     .102000000000D+03 -.705937500000D+02  .445054252582D-08  .157988242028D+01
    -.359676778316D-05  .693763955496D-02  .764243304729D-05  .515376244736D+04
     .360000000000D+05 -.117346644402D-06 -.244599946887D+01 -.484287738800D-07
     .959904928533D+00  .228718750000D+03 -.219970284291D+01 -.812033824468D-08
    -.282154610015D-10  .100000000000D+01  .226800000000D+04  .000000000000D+00
     .240000000000D+01  .000000000000D+00  .465661287308D-09  .102000000000D+03
     .288000000000D+05  .400000000000D+01
27 23  6 25 10  0  0.0  .957958400249D-05 -.750333128963D-11  .000000000000D+00
     .870000000000D+02 -.562500000000D+00  .456733310490D-08  .977212248584D+00
     .221654772758D-06  .115562006831D-01  .750459730625D-05  .515366718483D+04
     .360000000000D+05 -.856816768646D-07  .700565302408D+00  .931322574615D-07
     .967298924660D+00  .239406250000D+03  .742949535539D+00 -.821998525252D-08
    -.479662837025D-09  .100000000000D+01  .226800000000D+04  .000000000000D+00
     .340000000000D+01  .000000000000D+00  .186264514923D-08  .870000000000D+02
     .288000000000D+05  .400000000000D+01
19 23  6 25 10  0  0.0  .335276592523D-03  .511590769747D-11  .000000000000D+00
     .570000000000D+02  .152187500000D+02  .423410493889D-08  .306345087122D+01
     .869855284691D-06  .948971975595D-02  .811554491520D-05  .515363117409D+04
     .360000000000D+05 -.111758708954D-07  .810977736592D+00  .240281224251D-06
     .973008721719D+00  .229906250000D+03  .233412028230D+01 -.779032449828D-08
    -.333228166005D-09  .100000000000D+01  .226800000000D+04  .000000000000D+00
     .240000000000D+01  .000000000000D+00 -.153668224812D-07  .570000000000D+02
     .288000000000D+05  .400000000000D+01
18 23  6 25 10  0  0.0 -.321209896356D-03 -.147792889038D-10  .000000000000D+00
     .133000000000D+03  .301875000000D+02  .399516641472D-08 -.106297587365D+01
     .153295695782D-05  .335472775623D-02  .842288136482D-05  .515367211533D+04
     .360000000000D+05  .186264514923D-08  .177062417628D+01 -.124797224998D-06
     .973777341804D+00  .226125000000D+03  .312293231572D+01 -.785211278630D-08
     .357157734196D-11  .100000000000D+01  .226800000000D+04  .000000000000D+00
     .240000000000D+01  .000000000000D+00 -.838190317154D-08  .133000000000D+03
     .288000000000D+05  .400000000000D+01
16 23  6 25 10  0  0.0 -.487852375954D-03  .397903932026D-11  .000000000000D+00
     .990000000000D+02  .281250000000D+02  .484698761078D-08  .187399272428D+01
     .137649476528D-05  .132948815590D-01  .638328492641D-05  .515361412811D+04
     .360000000000D+05 -.376254320145D-06 -.254239567470D+00 -.651925802231D-07
     .965065045827D+00  .262437500000D+03  .789174348485D+00 -.816569727693D-08
    -.135719938995D-10  .100000000000D+01  .226800000000D+04  .000000000000D+00
     .340000000000D+01  .000000000000D+00 -.102445483208D-07  .990000000000D+02
     .288000000000D+05  .400000000000D+01
15 23  6 25 10  0  0.0  .520795583725D-04  .352429196937D-11  .000000000000D+00
     .115000000000D+03 -.613750000000D+02  .517164399116D-08 -.177998158109D-01
    -.313669443130D-05  .150204802630D-01  .733323395252D-05  .515374162292D+04
     .360000000000D+05 -.175088644028D-06 -.257839065993D+01  .229105353355D-06
     .932757148119D+00  .225750000000D+03  .120664497082D+01 -.865678916144D-08
    -.167864135072D-10  .100000000000D+01  .226800000000D+04  .000000000000D+00
     .240000000000D+01  .000000000000D+00 -.107102096081D-07  .115000000000D+03
     .288000000000D+05  .400000000000D+01
17 23  6 25 10  0  0.0  .719404313713D-03  .102318153949D-11  .000000000000D+00
     .650000000000D+02  .562500000000D+01  .430732227440D-08  .873604095083D+00
     .856816768646D-07  .134969714563D-01  .824965536594D-05  .515378683281D+04
     .360000000000D+05 -.191852450371D-06  .766462157631D+00 -.163912773132D-06
     .973958647093D+00  .233187500000D+03 -.140474466640D+01 -.811533803640D-08
    -.365015204348D-09  .100000000000D+01  .226800000000D+04  .000000000000D+00
     .240000000000D+01  .000000000000D+00 -.111758708954D-07  .650000000000D+02
     .288000000000D+05  .400000000000D+01
13 23  6 25 10  0  0.0  .538683030754D-03  .511590769747D-11  .000000000000D+00
     .900000000000D+02 -.532500000000D+02  .423160483476D-08  .575553735769D+00
    -.289455056190D-05  .709365413059D-02  .911951065063D-05  .515367385292D+04
     .360000000000D+05 -.614672899246D-07 -.229857361563D+01  .745058059692D-07
     .969852383799D+00  .209437500000D+03  .908285047798D+00 -.799569019545D-08
    -.471448209139D-10  .100000000000D+01  .226800000000D+04  .000000000000D+00
     .240000000000D+01  .000000000000D+00 -.111758708954D-07  .900000000000D+02
     .288000000000D+05  .400000000000D+01
14 23  6 25 10  0  0.0  .101908110082D-03  .122781784739D-10  .000000000000D+00
     .710000000000D+02  .265625000000D+02  .514235705696D-08 -.264990985166D+01
     .138767063618D-05  .330488232430D-02  .606104731560D-05  .515367619514D+04
     .360000000000D+05 -.689178705215D-07 -.311555669384D+00 -.763684511185D-07
     .948707155221D+00  .258812500000D+03 -.298934776386D+01 -.831106047474D-08
    -.560737642688D-10  .100000000000D+01  .226800000000D+04  .000000000000D+00
     .240000000000D+01  .000000000000D+00 -.791624188423D-08  .839000000000D+03
     .288000000000D+05  .400000000000D+01
11 23  6 25 10  0  0.0 -.249525532126D-03 -.154614099301D-10  .000000000000D+00
     .154000000000D+03  .415312500000D+02  .431482258682D-08  .393252702565D+00
     .207498669624D-05  .929957837798D-03  .731088221073D-05  .515376830292D+04
     .360000000000D+05  .540167093277D-07  .180240003701D+01  .447034835815D-07
     .965329671616D+00  .240156250000D+03 -.289221194030D+01 -.809462288782D-08
     .964325882329D-11  .100000000000D+01  .226800000000D+04  .000000000000D+00
     .240000000000D+01  .000000000000D+00 -.884756445885D-08  .666000000000D+03
     .288000000000D+05  .400000000000D+01
23 23  6 25 10  0  0.0  .366028398275D-04  .375166564481D-11  .000000000000D+00
     .186000000000D+03 -.108125000000D+02  .416731644260D-08 -.210776652279D+01
    -.508502125740D-06  .328059541062D-02  .513531267643D-05  .515365950775D+04
     .360000000000D+05 -.614672899246D-07  .277045899004D+01  .167638063431D-07
     .974528360058D+00  .288375000000D+03 -.310324237903D+01 -.801176229349D-08
     .203579908492D-09  .100000000000D+01  .226800000000D+04  .000000000000D+00
     .240000000000D+01  .000000000000D+00 -.838190317154D-08  .442000000000D+03
     .288000000000D+05  .400000000000D+01
28 23  6 25 10  0  0.0  .836262479424D-04  .000000000000D+00  .000000000000D+00
     .199000000000D+03  .775000000000D+01  .455626121514D-08  .289311010032D+01
     .141561031342D-06  .647125998512D-03  .964291393757D-05  .515370067024D+04
     .360000000000D+05  .372529029846D-07 -.142428923584D+01 -.204890966415D-07
     .961122150984D+00  .194093750000D+03  .167901668503D+01 -.792997317236D-08
     .263939565571D-09  .100000000000D+01  .226800000000D+04  .000000000000D+00
     .240000000000D+01  .000000000000D+00 -.977888703346D-08  .967000000000D+03
     .288000000000D+05  .400000000000D+01
32 23  6 25  9 59 44.0 -.507807359099D-03 -.818545231596D-11  .000000000000D+00
     .100000000000D+01 -.705937500000D+02  .445054252582D-08  .157754875727D+01
    -.359676778316D-05  .693764153402D-02  .764243304729D-05  .515376245499D+04
     .359840000000D+05 -.117346644402D-06 -.244599934891D+01 -.484287738800D-07
     .959904921219D+00  .228718750000D+03 -.219970291167D+01 -.812033824468D-08
    -.282154610015D-10  .100000000000D+01  .226800000000D+04  .000000000000D+00
     .240000000000D+01  .000000000000D+00  .465661287308D-09  .100000000000D+01
     .309900000000D+05  .400000000000D+01
16 23  6 25  9 59 44.0 -.487851444632D-03  .409272615798D-11  .000000000000D+00
     .800000000000D+01  .281250000000D+02  .484698761078D-08  .187165875844D+01
     .137649476528D-05  .132948813261D-01  .638328492641D-05  .515361413002D+04
     .359840000000D+05 -.376254320145D-06 -.254239431419D+00 -.651925802231D-07
     .965065053142D+00  .262437500000D+03  .789174455278D+00 -.816569727693D-08
    -.135719938995D-10  .100000000000D+01  .226800000000D+04  .000000000000D+00
     .240000000000D+01  .000000000000D+00 -.102445483208D-07  .800000000000D+01
     .312000000000D+05  .400000000000D+01
